IRIDIUM 135             
1 43070U 17083A   26164.17475884  .00000005  00000+0 -51262-5 0  9992
2 43070  86.3958 323.6934 0002065  91.5366 268.6066 14.34217539443574
IRIDIUM 138             
1 43071U 17083B   26164.20012845  .00000127  00000+0  38448-4 0  9995
2 43071  86.3975 323.3776 0002358  87.1984 272.9482 14.34218717443565
IRIDIUM 116             
1 43072U 17083C   26164.16841591  .00000065  00000+0  16115-4 0  9997
2 43072  86.3960 323.6819 0001914  96.8694 263.2720 14.34217888443592
IRIDIUM 130             
1 43073U 17083D   26163.92739723 -.00000064  00000+0 -30029-4 0  9995
2 43073  86.3966 324.0577 0001835  89.9601 270.1805 14.34217074443507
IRIDIUM 151             
1 43074U 17083E   26164.18110159  .00000020  00000+0  65980-7 0  9998
2 43074  86.3962 323.7343 0002132  92.7205 267.4235 14.34217594443563
IRIDIUM 134             
1 43075U 17083F   26164.14938833  .00000029  00000+0  32563-5 0  9990
2 43075  86.3964 323.7555 0002097  90.2948 269.8488 14.34217814443525
IRIDIUM 137             
1 43076U 17083G   26164.16207358  .00000056  00000+0  13004-4 0  9992
2 43076  86.3965 323.8429 0002142 103.6992 256.4443 14.34217834443599
IRIDIUM 141             
1 43077U 17083H   26164.15573131  .00000014  00000+0 -20552-5 0  9999
2 43077  86.3960 323.6764 0002206  90.8416 269.3033 14.34217631443597
IRIDIUM 153             
1 43078U 17083J   26163.89860468  .00000010  00000+0 -35019-5 0  9992
2 43078  86.3954 292.2643 0002171  90.1907 269.9538 14.34217538444668
IRIDIUM 131             
1 43079U 17083K   26164.14304604  .00000068  00000+0  17133-4 0  9995
2 43079  86.3967 323.8675 0002221  91.8294 268.3156 14.34217920443520
IRIDIUM 144             
1 43249U 18030A   26164.11425193  .00000051  00000+0  11239-4 0  9994
2 43249  86.3956 292.1031 0002080  95.8910 264.2523 14.34217929429552
IRIDIUM 149             
1 43250U 18030B   26164.05082652  .00000014  00000+0 -21148-5 0  9999
2 43250  86.3952 292.0965 0002241  93.0514 267.0938 14.34217726429561
IRIDIUM 157             
1 43251U 18030C   26164.27915983  .00000017  00000+0 -91113-6 0  9999
2 43251  86.3956 292.0543 0002196  94.0177 266.1270 14.34217753429573
IRIDIUM 140             
1 43252U 18030D   26163.87957646  .00000004  00000+0 -55633-5 0  9999
2 43252  86.3955 292.2340 0002122  93.0363 267.1075 14.34217603429573
IRIDIUM 145             
1 43253U 18030E   26164.28550177  .00000077  00000+0  20573-4 0  9997
2 43253  86.3955 292.0365 0001934  99.6739 260.4676 14.34217593429568
IRIDIUM 146             
1 43254U 18030F   26164.26647480 -.00000004  00000+0 -85881-5 0  9996
2 43254  86.3954 292.0569 0001985  96.3865 263.7557 14.34217424429572
IRIDIUM 148             
1 43255U 18030G   26163.88591967  .00000012  00000+0 -29190-5 0  9991
2 43255  86.3956 292.2589 0002220  96.7960 263.3488 14.34217445429552
IRIDIUM 142             
1 43256U 18030H   26164.27281666  .00000234  00000+0  76326-4 0  9995
2 43256  86.3953 291.9862 0002048  97.5368 262.6060 14.34217917429573
IRIDIUM 150             
1 43257U 18030J   26164.31087300 -.00000009  00000+0 -10318-4 0  9991
2 43257  86.3954 292.0867 0002018  93.1059 267.0368 14.34217385429601
IRIDIUM 143             
1 43258U 18030K   26163.87323298  .00000209  00000+0  67564-4 0  9996
2 43258  86.3959 292.3619 0002068  95.4342 264.7090 14.34218715429479
IRIDIUM 161             
1 43478U 18047C   26164.21713922  .00000294  00000+0  81382-4 0  9992
2 43478  86.4483  90.1310 0002544  86.0669 274.0823 14.43280955424563
IRIDIUM 152             
1 43479U 18047D   26164.26456379  .00000017  00000+0 -85611-6 0  9993
2 43479  86.3957  89.9721 0002238  83.0868 277.0583 14.34217518421927
IRIDIUM 147             
1 43480U 18047E   26164.27090587  .00000013  00000+0 -25178-5 0  9998
2 43480  86.3959  89.9747 0002143  85.1325 275.0115 14.34217549421928
IRIDIUM 110             
1 43481U 18047F   26164.27724808  .00000085  00000+0  23326-4 0  9999
2 43481  86.3963  90.0638 0002581  84.0637 276.0853 14.34218397421917
IRIDIUM 162             
1 43482U 18047G   26164.21084595  .00000290  00000+0  80089-4 0  9993
2 43482  86.4481  90.0247 0002304  82.8052 277.3411 14.43279599424558
IRIDIUM 160             
1 43569U 18061A   26164.22308461  .00000022  00000+0  83017-6 0  9996
2 43569  86.3962  58.4547 0002165  85.7455 274.3988 14.34217556412808
IRIDIUM 166             
1 43570U 18061B   26164.24845463  .00000067  00000+0  16842-4 0  9997
2 43570  86.3965  58.3948 0002115  85.4053 274.7384 14.34217852412839
IRIDIUM 158             
1 43571U 18061C   26164.21674197  .00000028  00000+0  29839-5 0  9997
2 43571  86.3964  58.4180 0002224  81.8603 278.2845 14.34217481412794
IRIDIUM 165             
1 43572U 18061D   26164.24211027  .00000127  00000+0  38252-4 0  9998
2 43572  86.3966  58.4537 0002066  85.6367 274.5065 14.34217257412824
IRIDIUM 155             
1 43573U 18061E   26164.20405635  .00000001  00000+0 -67219-5 0  9993
2 43573  86.3958  58.3387 0002030  81.9223 278.2203 14.34217494412782
