OBJECT_NAME,OBJECT_ID,EPOCH,MEAN_MOTION,ECCENTRICITY,INCLINATION,RA_OF_ASC_NODE,ARG_OF_PERICENTER,MEAN_ANOMALY,EPHEMERIS_TYPE,CLASSIFICATION_TYPE,NORAD_CAT_ID,ELEMENT_SET_NO,REV_AT_EPOCH,BSTAR,MEAN_MOTION_DOT,MEAN_MOTION_DDOT
IRIDIUM 135,2017-083A,2026-06-13T04:11:39.163776,14.34217539,.00020654,86.3958,323.6934,91.5366,268.6066,0,U,43070,999,44357,-.5126192E-5,.5E-7,0
IRIDIUM 138,2017-083B,2026-06-13T04:48:11.098080,14.34218717,.00023582,86.3975,323.3776,87.1984,272.9482,0,U,43071,999,44356,.38448411E-4,.127E-5,0
IRIDIUM 116,2017-083C,2026-06-13T04:02:31.134624,14.34217888,.00019146,86.3960,323.6819,96.8694,263.2720,0,U,43072,999,44359,.1611493E-4,.65E-6,0
IRIDIUM 130,2017-083D,2026-06-12T22:15:27.120672,14.34217074,.00018351,86.3966,324.0577,89.9601,270.1805,0,U,43073,999,44350,-.3002854E-4,-.64E-6,0
IRIDIUM 151,2017-083E,2026-06-13T04:20:47.177376,14.34217594,.0002132,86.3962,323.7343,92.7205,267.4235,0,U,43074,999,44356,.6598E-7,.2E-6,0
IRIDIUM 134,2017-083F,2026-06-13T03:35:07.151712,14.34217814,.0002097,86.3964,323.7555,90.2948,269.8488,0,U,43075,999,44352,.3256279E-5,.29E-6,0
IRIDIUM 137,2017-083G,2026-06-13T03:53:23.157312,14.34217834,.00021422,86.3965,323.8429,103.6992,256.4443,0,U,43076,999,44359,.13003578E-4,.56E-6,0
IRIDIUM 141,2017-083H,2026-06-13T03:44:15.185184,14.34217631,.0002206,86.3960,323.6764,90.8416,269.3033,0,U,43077,999,44359,-.2055201E-5,.14E-6,0
IRIDIUM 153,2017-083J,2026-06-12T21:33:59.444352,14.34217538,.00021716,86.3954,292.2643,90.1907,269.9538,0,U,43078,999,44466,-.3501932E-5,.1E-6,0
IRIDIUM 131,2017-083K,2026-06-13T03:25:59.177856,14.34217920,.00022212,86.3967,323.8675,91.8294,268.3156,0,U,43079,999,44352,.17133392E-4,.68E-6,0
IRIDIUM 144,2018-030A,2026-06-13T02:44:31.366752,14.34217929,.00020806,86.3956,292.1031,95.8910,264.2523,0,U,43249,999,42955,.11239128E-4,.51E-6,0
IRIDIUM 149,2018-030B,2026-06-13T01:13:11.411328,14.34217726,.00022414,86.3952,292.0965,93.0514,267.0938,0,U,43250,999,42956,-.2114763E-5,.14E-6,0
IRIDIUM 157,2018-030C,2026-06-13T06:41:59.409312,14.34217753,.00021965,86.3956,292.0543,94.0177,266.1270,0,U,43251,999,42957,-.911132E-6,.17E-6,0
IRIDIUM 140,2018-030D,2026-06-12T21:06:35.406144,14.34217603,.00021228,86.3955,292.2340,93.0363,267.1075,0,U,43252,999,42957,-.5563272E-5,.4E-7,0
IRIDIUM 145,2018-030E,2026-06-13T06:51:07.352928,14.34217593,.00019347,86.3955,292.0365,99.6739,260.4676,0,U,43253,999,42956,.20572508E-4,.77E-6,0
IRIDIUM 146,2018-030F,2026-06-13T06:23:43.422720,14.34217424,.0001985,86.3954,292.0569,96.3865,263.7557,0,U,43254,999,42957,-.8588144E-5,-.4E-7,0
IRIDIUM 148,2018-030G,2026-06-12T21:15:43.459488,14.34217445,.00022207,86.3956,292.2589,96.7960,263.3488,0,U,43255,999,42955,-.2918966E-5,.12E-6,0
IRIDIUM 142,2018-030H,2026-06-13T06:32:51.359424,14.34217917,.00020484,86.3953,291.9862,97.5368,262.6060,0,U,43256,999,42957,.76325667E-4,.234E-5,0
IRIDIUM 150,2018-030J,2026-06-13T07:27:39.427200,14.34217385,.00020182,86.3954,292.0867,93.1059,267.0368,0,U,43257,999,42960,-.1031789E-4,-.9E-7,0
IRIDIUM 143,2018-030K,2026-06-12T20:57:27.329472,14.34218715,.00020682,86.3959,292.3619,95.4342,264.7090,0,U,43258,999,42947,.67564426E-4,.209E-5,0
IRIDIUM 161,2018-047C,2026-06-13T05:12:40.828608,14.43280955,.00025446,86.4483,90.1310,86.0669,274.0823,0,U,43478,999,42456,.8138234E-4,.294E-5,0
IRIDIUM 152,2018-047D,2026-06-13T06:20:58.311456,14.34217518,.0002238,86.3957,89.9721,83.0868,277.0583,0,U,43479,999,42192,-.856109E-6,.17E-6,0
IRIDIUM 147,2018-047E,2026-06-13T06:30:06.267168,14.34217549,.00021435,86.3959,89.9747,85.1325,275.0115,0,U,43480,999,42192,-.251777E-5,.13E-6,0
IRIDIUM 110,2018-047F,2026-06-13T06:39:14.234112,14.34218397,.00025815,86.3963,90.0638,84.0637,276.0853,0,U,43481,999,42191,.23326424E-4,.85E-6,0
IRIDIUM 162,2018-047G,2026-06-13T05:03:37.090080,14.43279599,.0002304,86.4481,90.0247,82.8052,277.3411,0,U,43482,999,42455,.80088893E-4,.29E-5,0
IRIDIUM 160,2018-061A,2026-06-13T05:21:14.510304,14.34217556,.00021656,86.3962,58.4547,85.7455,274.3988,0,U,43569,999,41280,.830172E-6,.22E-6,0
IRIDIUM 166,2018-061B,2026-06-13T05:57:46.480032,14.34217852,.00021152,86.3965,58.3948,85.4053,274.7384,0,U,43570,999,41283,.16842437E-4,.67E-6,0
IRIDIUM 158,2018-061C,2026-06-13T05:12:06.506208,14.34217481,.00022241,86.3964,58.4180,81.8603,278.2845,0,U,43571,999,41279,.2983938E-5,.28E-6,0
IRIDIUM 165,2018-061D,2026-06-13T05:48:38.327328,14.34217257,.00020661,86.3966,58.4537,85.6367,274.5065,0,U,43572,999,41282,.38252271E-4,.127E-5,0
IRIDIUM 155,2018-061E,2026-06-13T04:53:50.468640,14.34217494,.00020303,86.3958,58.3387,81.9223,278.2203,0,U,43573,999,41278,-.6721909E-5,.1E-7,0
